NORAD_CAT_ID,OBJECT_NAME,OBJECT_TYPE,EPOCH,MEAN_MOTION,ECCENTRICITY,INCLINATION,RA_OF_ASC_NODE,ARG_OF_PERICENTER,MEAN_ANOMALY,BSTAR,MEAN_MOTION_DOT,MEAN_MOTION_DDOT,TLE_LINE0,TLE_LINE1,TLE_LINE2,SEMIMAJOR_AXIS,PERIOD,APOGEE,PERIGEE,DECAYED
51751.0,STARLINK-3506,PAYLOAD,2022-05-29 22:05:47,15.25895682,0.0001414,53.2167,23.8038,91.5572,268.5589,-0.012379,-0.00308736,0.0,0 STARLINK-3506,1 51751U 22016AP  22149.92068689 -.00308736  00000-0 -12379-1 0  9998,2 51751  53.2167  23.8038 0001414  91.5572 268.5589 15.25895682 15390,6866.234,94.371,489.07,487.128,0.0
51751.0,STARLINK-3506,PAYLOAD,2022-05-30 14:00:01,15.23846017,0.0001298,53.2172,20.7332,61.793,336.9946,-0.031692,-0.00721878,0.0,0 STARLINK-3506,1 51751U 22016AP  22150.58334491 -.00721878  00000-0 -31692-1 0  9994,2 51751  53.2172  20.7332 0001298  61.7930 336.9946 15.23846017 16604,6872.39,94.498,495.147,493.36300000000006,0.0
51751.0,STARLINK-3506,PAYLOAD,2022-05-30 21:42:14,15.24394085,0.0001744,53.2168,19.2782,101.2489,258.8706,-0.012988,-0.00309581,0.0,0 STARLINK-3506,1 51751U 22016AP  22150.90433300 -.00309581  00000-0 -12988-1 0  9999,2 51751  53.2168  19.2782 0001744 101.2489 258.8706 15.24394085 16651,6870.7419999999975,94.464,493.806,491.409,0.0
51751.0,STARLINK-3506,PAYLOAD,2022-05-31 06:00:02,15.22739186,0.0001325,53.2167,17.6718,54.75100000000001,42.1668,-0.026968,-0.00595565,0.0,0 STARLINK-3506,1 51751U 22016AP  22151.25002315 -.00595565  00000-0 -26968-1 0  9998,2 51751  53.2167  17.6718 0001325  54.7510  42.1668 15.22739186 16714,6875.72,94.566,498.496,496.674,0.0
51751.0,STARLINK-3506,PAYLOAD,2022-05-31 13:27:42,15.23726987,0.0001679,53.2168,16.2642,74.1554,285.9629,-0.0096278,-0.00227535,0.0,0 STARLINK-3506,1 51751U 22016AP  22151.56090732 -.00227535  00000-0 -96278-2 0  9993,2 51751  53.2168  16.2642 0001679  74.1554 285.9629 15.23726987 16756,6872.748000000001,94.505,495.767,493.459,0.0
51751.0,STARLINK-3506,PAYLOAD,2022-05-31 21:20:33,15.23150306,0.0001371,53.2171,14.7601,82.1879,277.9275,-0.0096748,-0.00224831,0.0,0 STARLINK-3506,1 51751U 22016AP  22151.88927450 -.00224831  00000-0 -96748-2 0  9992,2 51751  53.2171  14.7601 0001371  82.1879 277.9275 15.23150306 16806,6874.482,94.541,497.29,495.405,0.0
51751.0,STARLINK-3506,PAYLOAD,2022-06-01 06:00:00,15.21297571,0.0001435,53.2172,13.0824,65.8312,113.4194,-0.034287,-0.00723899,0.0,0 STARLINK-3506,1 51751U 22016AP  22152.25001157 -.00723899  00000-0 -34287-1 0  9998,2 51751  53.2172  13.0824 0001435  65.8312 113.4194 15.21297571 16861,6880.063,94.656,502.915,500.94,0.0
51751.0,STARLINK-3506,PAYLOAD,2022-06-01 20:00:01,15.20404388,0.0001664,53.2172,10.4117,48.43899999999999,86.3549,-0.035159,-0.00723139,0.0,0 STARLINK-3506,1 51751U 22016AP  22152.83334491 -.00723139  00000-0 -35159-1 0  9998,2 51751  53.2172  10.4117 0001664  48.4390  86.3549 15.20404388  1304,6882.757,94.712,505.767,503.477,0.0
51751.0,STARLINK-3506,PAYLOAD,2022-06-02 20:39:47,15.20675378,0.0002018,53.2171,5.7326,53.0352,307.083,-0.0077136,-0.00168007,0.0,0 STARLINK-3506,1 51751U 22016AP  22153.86096534 -.00168007  00000-0 -77136-2 0  9994,2 51751  53.2171   5.7326 0002018  53.0352 307.0830 15.20675378 17106,6881.939,94.695,505.193,502.415,0.0
51751.0,STARLINK-3506,PAYLOAD,2022-06-02 23:50:02,15.19953947,0.0002954,53.2153,5.1334,79.9664,280.1666,-0.010774,-0.0022782,0.0,0 STARLINK-3506,1 51751U 22016AP  22153.99308184 -.00227820  00000-0 -10774-1 0  9998,2 51751  53.2153   5.1334 0002954  79.9664 280.1666 15.19953947 17120,6884.1169999999975,94.74,508.015,503.948,0.0
51751.0,STARLINK-3506,PAYLOAD,2022-06-03 12:28:10,15.19347012,0.0001415,53.2176,2.7324,61.3392,298.7747,-0.0099477,-0.00207232,0.0,0 STARLINK-3506,1 51751U 22016AP  22154.51957072 -.00207232  00000-0 -99477-2 0  9996,2 51751  53.2176   2.7324 0001415  61.3392 298.7747 15.19347012 17205,6885.95,94.778,508.789,506.841,0.0
51751.0,STARLINK-3506,PAYLOAD,2022-06-03 18:47:42,15.18770824,0.0002813,53.2187,1.5343,23.9689,336.1438,-0.010432,-0.00213554,0.0,0 STARLINK-3506,1 51751U 22016AP  22154.78312763 -.00213554  00000-0 -10432-1 0  9994,2 51751  53.2187   1.5343 0002813  23.9689 336.1438 15.18770824 17249,6887.691,94.814,511.494,507.619,0.0
51751.0,STARLINK-3506,PAYLOAD,2022-06-04 04:16:48,15.18265261,0.0002165,53.2194,359.7356,7.7765,352.3264,-0.010532,-0.00212485,0.0,0 STARLINK-3506,1 51751U 22016AP  22155.17833684 -.00212485  00000-0 -10532-1 0  9991,2 51751  53.2194 359.7356 0002165   7.7765 352.3264 15.18265261 17302,6889.22,94.845,512.577,509.594,0.0
51751.0,STARLINK-3506,PAYLOAD,2022-06-04 12:11:19,15.17744904,0.000165,53.2231,358.2385,26.7146,333.3935,-0.011026,-0.00218922,0.0,0 STARLINK-3506,1 51751U 22016AP  22155.50786491 -.00218922  00000-0 -11026-1 0  9992,2 51751  53.2231 358.2385 0001650  26.7146 333.3935 15.17744904 16243,6890.795,94.878,513.797,511.523,0.0
51751.0,STARLINK-3506,PAYLOAD,2022-06-05 22:00:00,15.1415734,0.0001774,53.2174,351.816,45.5553,85.4939,-0.04209,-0.00723039,0.0,0 STARLINK-3506,1 51751U 22016AP  22156.91667824 -.00723039  00000-0 -42090-1 0  9991,2 51751  53.2174 351.8160 0001774  45.5553  85.4939 15.14157340 17572,6901.675,95.102,524.764,522.316,0.0
51751.0,STARLINK-3506,PAYLOAD,2022-06-06 14:00:01,15.13136919,0.0001671,53.2177,348.7951,52.4899,113.2985,-0.043224,-0.00721519,0.0,0 STARLINK-3506,1 51751U 22016AP  22157.58334491 -.00721519  00000-0 -43224-1 0  9997,2 51751  53.2177 348.7951 0001671  52.4899 113.2985 15.13136919  1307,6904.778,95.167,527.7959999999998,525.489,0.0
51751.0,STARLINK-3506,PAYLOAD,2022-06-06 22:00:00,15.1262596,0.0001664,53.2175,347.2889,55.5086,126.7291,-0.043775,-0.00720371,0.0,0 STARLINK-3506,1 51751U 22016AP  22157.91667824 -.00720371  00000-0 -43775-1 0  9999,2 51751  53.2175 347.2889 0001664  55.5086 126.7291 15.12625960  1300,6906.331999999999,95.199,529.347,527.048,0.0
51751.0,STARLINK-3506,PAYLOAD,2022-06-07 06:00:00,15.12117874,0.0001582,53.2174,345.7808,57.159,140.9159,-0.044578,-0.00723003,0.0,0 STARLINK-3506,1 51751U 22016AP  22158.25001157 -.00723003  00000-0 -44578-1 0  9995,2 51751  53.2174 345.7808 0001582  57.1590 140.9159 15.12117874 17779,6907.879,95.231,530.837,528.6519999999998,0.0
51751.0,STARLINK-3506,PAYLOAD,2022-06-07 14:00:01,15.11606923,0.0001737,53.2177,344.2754,50.2586,163.0409,-0.045104,-0.00721294,0.0,0 STARLINK-3506,1 51751U 22016AP  22158.58334491 -.00721294  00000-0 -45104-1 0  9997,2 51751  53.2177 344.2754 0001737  50.2586 163.0409 15.11606923  1300,6909.436,95.263,532.501,530.101,0.0
51751.0,STARLINK-3506,PAYLOAD,2022-06-07 22:00:00,15.11095126,0.0001727,53.2175,342.7726,51.3577,176.5531,-0.045564,-0.00718521,0.0,0 STARLINK-3506,1 51751U 22016AP  22158.91667824 -.00718521  00000-0 -45564-1 0  9992,2 51751  53.2175 342.7726 0001727  51.3577 176.5531 15.11095126  1303,6910.996,95.295,534.054,531.6669999999998,0.0
51751.0,STARLINK-3506,PAYLOAD,2022-06-08 06:00:02,15.10587778,0.0001530999999999,53.2175,341.2679,60.742,181.2305,-0.046499,-0.00722663,0.0,0 STARLINK-3506,1 51751U 22016AP  22159.25002315 -.00722663  00000-0 -46499-1 0  9998,2 51751  53.2175 341.2679 0001531  60.7420 181.2305 15.10587778 17923,6912.543000000002,95.327,535.467,533.35,0.0
51751.0,STARLINK-3506,PAYLOAD,2022-06-08 14:00:01,15.10077018,0.0001602,53.2177,339.7663,56.1958,199.0998,-0.047063,-0.00721247,0.0,0 STARLINK-3506,1 51751U 22016AP  22159.58334491 -.00721247  00000-0 -47063-1 0  9992,2 51751  53.2177 339.7663 0001602  56.1958 199.0998 15.10077018  1305,6914.102,95.359,537.075,534.859,0.0
51751.0,STARLINK-3506,PAYLOAD,2022-06-08 22:00:01,15.09564165,0.0001615,53.2175,338.2674,54.4899,213.6415,-0.047424,-0.0071686,0.0,0 STARLINK-3506,1 51751U 22016AP  22159.91668981 -.00716860  00000-0 -47424-1 0  9999,2 51751  53.2175 338.2674 0001615  54.4899 213.6415 15.09564165  1307,6915.668000000002,95.392,538.65,536.4159999999998,0.0
51751.0,STARLINK-3506,PAYLOAD,2022-06-09 06:00:00,15.08912201,0.0001591,53.2176,336.7673,56.6509,223.5969,-0.0074378999999999,-0.00116977,0.0,0 STARLINK-3506,1 51751U 22016AP  22160.25001157 -.00116977  00000-0 -74379-2 0  9997,2 51751  53.2176 336.7673 0001591  56.6509 223.5969 15.08912201 18078,6917.66,95.433,540.625,538.424,0.0
51751.0,STARLINK-3506,PAYLOAD,2022-06-09 14:00:01,15.08837897,0.0001597,53.2177,335.2709,56.4939,235.3833,-8.0701e-05,-1.572e-05,0.0,0 STARLINK-3506,1 51751U 22016AP  22160.58334491 -.00001572  00000-0 -80701-4 0  9995,2 51751  53.2177 335.2709 0001597  56.4939 235.3833 15.08837897  1300,6917.887,95.438,540.857,538.6469999999998,0.0
51751.0,STARLINK-3506,PAYLOAD,2022-06-09 22:00:00,15.08840162,0.000165,53.2169,333.7851,51.7789,251.8125,0.0026872,0.00042739,0.0,0 STARLINK-3506,1 51751U 22016AP  22160.91667824  .00042739  00000-0  26872-2 0  9996,2 51751  53.2169 333.7851 0001650  51.7789 251.8125 15.08840162  1309,6917.88,95.438,540.886,538.6030000000002,0.0
51751.0,STARLINK-3506,PAYLOAD,2022-06-10 00:00:00,15.08865007,0.00016,53.2166,333.4106,49.7213,346.7668,-0.00040239,-6.691e-05,0.0,0 STARLINK-3506,1 51751U 22016AP  22161.00001157 -.00006691  00000-0 -40239-3 0  9991,2 51751  53.2166 333.4106 0001600  49.7213 346.7668 15.08865007 18196,6917.804,95.436,540.776,538.562,0.0
51751.0,STARLINK-3506,PAYLOAD,2022-06-10 14:00:01,15.08834819,0.0001395999999999,53.2167,330.7904,54.4447,272.356,-0.0011019,-0.00017779,0.0,0 STARLINK-3506,1 51751U 22016AP  22161.58334491 -.00017779  00000-0 -11019-2 0  9996,2 51751  53.2167 330.7904 0001396  54.4447 272.3560 15.08834819 18278,6917.896,95.438,540.727,538.795,0.0
51751.0,STARLINK-3506,PAYLOAD,2022-06-10 22:00:00,15.08802497,0.0001536,53.2165,329.2954,46.6957,291.6876,0.0029747,0.00047324,0.0,0 STARLINK-3506,1 51751U 22016AP  22161.91667824  .00047324  00000-0  29747-2 0  9996,2 51751  53.2165 329.2954 0001536  46.6957 291.6876 15.08802497  1306,6917.995,95.44,540.923,538.797,0.0
